GALAXY 25 (G-25)        
1 24812U 97026A   23028.44830650 -.00000064  00000+0  00000+0 0  9995
2 24812   4.2511  81.4070 0004818 295.4713 107.6731  0.99033984 93972
INTELSAT 5 (IS-5)       
1 24916U 97046A   23028.37072972 -.00000067  00000+0  00000+0 0  9992
2 24916   7.7072  59.4613 0004582 222.8338 144.6743  1.00272532 93229
GALAXY 11 (G-11)        
1 26038U 99071A   23028.51882590 -.00000165  00000+0  00000+0 0  9999
2 26038   3.5971  84.9844 0001069 270.0405 226.1423  1.00271750 84686
INTELSAT 9 (IS-9)       
1 26451U 00043A   23027.96907028 -.00000293  00000+0  00000+0 0  9993
2 26451   7.6926  59.6545 0002936 228.4932 137.6779  1.00271298 82453
INTELSAT 1R (IS-1R)     
1 26608U 00072A   23026.59666093 -.00000145  00000+0  00000+0 0  9997
2 26608   4.9672  77.9060 0000808  18.7165  40.8879  1.00272096 28918
INTELSAT 10 (IS-10)     
1 26766U 01019A   23028.44473274  .00000029  00000+0  00000+0 0  9997
2 26766   6.1122  71.4267 0003481 221.7671 172.1281  1.00270948 79548
INTELSAT 901 (IS-901)   
1 26824U 01024A   23028.47558916 -.00000202  00000+0  00000+0 0  9992
2 26824   0.0557 261.2551 0001048  52.8222 317.0908  1.00271126 79191
INTELSAT 902 (IS-902)   
1 26900U 01039A   23028.18419674 -.00000285  00000+0  00000+0 0  9999
2 26900   2.9711  86.5237 0002622 213.3705 203.4972  1.00271359 78373
INTELSAT 904 (IS-904)   
1 27380U 02007A   23028.47524050 -.00000217  00000+0  00000+0 0  9990
2 27380   3.8017  83.5480 0003238 232.2464 313.2447  1.00271854 76698
DIRECTV 5 (TEMPO 1)     
1 27426U 02023A   23028.50761439 -.00000057  00000+0  00000+0 0  9999
2 27426   1.7010  90.5978 0003387 223.8305 245.6579  1.00272062 75914
INTELSAT 905 (IS-905)   
1 27438U 02027A   23027.83105328 -.00000188  00000+0  00000+0 0  9995
2 27438   3.6227  84.2684 0002831 221.3047  95.9273  1.00272227 38965
GALAXY 3C (G-3C)        
1 27445U 02030A   23028.51814385 -.00000152  00000+0  00000+0 0  9994
2 27445   0.5488  92.3957 0001010 224.2493 262.5359  1.00271259 75564
INTELSAT 906 (IS-906)   
1 27513U 02041A   23028.06352616  .00000012  00000+0  00000+0 0  9990
2 27513   2.6408  87.9215 0004190 204.9157 281.2294  1.00272564 74572
GALAXY 12 (G-12)        
1 27715U 03013B   23028.15550674  .00000055  00000+0  00000+0 0  9995
2 27715   3.8340  83.2207 0002115 232.1965  98.6925  1.00272220 72612
GALAXY 23 (G-23)        
1 27854U 03034A   23028.29095920  .00000013  00000+0  00000+0 0  9999
2 27854   0.0116  92.3501 0002701 223.8253 154.8602  1.00272280 76158
GALAXY 13 (HORIZONS-1)  
1 27954U 03044A   23028.49607946  .00000049  00000+0  00000+0 0  9999
2 27954   0.0134  66.0820 0001614 238.4679 234.5043  1.00270327 70763
INTELSAT 10-02          
1 28358U 04022A   23028.40908229 -.00000011  00000+0  00000+0 0  9994
2 28358   0.0015 194.3172 0001143 134.9267 304.4194  1.00272123 68234
XM-3 (RHYTHM)           
1 28626U 05008A   23028.52634941 -.00000205  00000+0  00000+0 0  9992
2 28626   0.0388 227.9675 0001216 322.1765  41.7102  1.00269736 65672
DIRECTV 8               
1 28659U 05019A   23028.50133059  .00000001  00000+0  00000+0 0  9995
2 28659   0.0190  84.8557 0002750 227.6066 236.4512  1.00271721 64792
GALAXY 28 (G-28)        
1 28702U 05022A   23028.52209462 -.00000185  00000+0  00000+0 0  9996
2 28702   0.1061  88.9199 0002895 238.9494 258.5868  1.00271493 64432
GALAXY 14 (G-14)        
1 28790U 05030A   23028.48761792  .00000154  00000+0  00000+0 0  9991
2 28790   1.8334  89.8098 0002135 220.0970  25.9756  1.00271619 63909
GALAXY 15 (G-15)        
1 28884U 05041A   23028.42979017 -.00000021  00000+0  00000+0 0  9996
2 28884   0.3852  92.7737 0004584 212.9289 219.7721  1.00319535 63217
SPACEWAY 2              
1 28903U 05046B   23028.14976459  .00000101  00000+0  00000+0 0  9997
2 28903   2.4196  85.8725 0000105 187.3571 128.9261  1.00272051 63106
GALAXY 16 (G-16)        
1 29236U 06023A   23028.51544517 -.00000126  00000+0  00000+0 0  9998
2 29236   0.0464 256.2712 0002752  55.3960 262.3642  1.00270612 60872
DIRECTV 9S              
1 29494U 06043A   23028.51349059 -.00000113  00000+0  00000+0 0  9996
2 29494   0.0127  98.7830 0003077 209.2216 263.1322  1.00271833 59710
XM-4 (BLUES)            
1 29520U 06049A   23028.31517578 -.00000265  00000+0  00000+0 0  9991
2 29520   0.0420 264.6941 0000786  85.6245 173.4475  1.00594061 59606
GALAXY 17 (G-17)        
1 31307U 07016B   23028.52121911 -.00000174  00000+0  00000+0 0  9996
2 31307   0.0226  54.4048 0002765 270.4989 259.2384  1.00272381 57683
DIRECTV 10              
1 31862U 07032A   23028.43759135 -.00000103  00000+0  00000+0 0  9997
2 31862   0.0209 212.3010 0000224  89.9340 239.9132  1.00274870 57014
SPACEWAY 3              
1 32018U 07036A   23028.24233852 -.00000152  00000+0  00000+0 0  9991
2 32018   0.7998  91.1881 0000192 152.3315 235.9741  1.00271724 56735
INTELSAT 11 (IS-11)     
1 32253U 07044B   23028.18567854 -.00000269  00000+0  00000+0 0  9995
2 32253   0.3609  93.9242 0003708 228.4139 188.6604  1.00271886 56132
HORIZONS-2              
1 32388U 07063B   23027.82120365 -.00000254  00000+0  00000+0 0  9991
2 32388   0.0349 271.1552 0002345  55.4815  21.9933  1.00272663 55416
DIRECTV 11              
1 32729U 08013A   23028.51544525 -.00000126  00000+0  00000+0 0  9999
2 32729   0.0138  58.8492 0001043 206.8569 308.1608  1.00274090 54544
GALAXY 18 (G-18)        
1 32951U 08024A   23028.49852453  .00000026  00000+0  00000+0 0  9995
2 32951   0.0174  83.3252 0003191 229.5763 231.0268  1.00271556 53697
INTELSAT 25 (IS-25)     
1 33153U 08034A   23028.18794484 -.00000224  00000+0  00000+0 0  9997
2 33153   0.0171  32.5780 0002948 277.0731 213.6654  1.00271289 53242
GALAXY 19 (G-19)        
1 33376U 08045A   23028.24157898 -.00000140  00000+0  00000+0 0  9992
2 33376   0.0123  68.9652 0002964 237.7867 170.4274  1.00274034 52448
FM-5                    
1 35493U 09034A   23028.10536530 -.00000201  00000+0  00000+0 0  9990
2 35493   0.0175  72.7996 0000532 134.9801 231.0863  1.00271720 49584
INTELSAT 14 (IS-14)     
1 36097U 09064A   23028.47210257 -.00000273  00000+0  00000+0 0  9998
2 36097   0.0139  85.9419 0002525 222.5622 303.9022  1.00273026 48306
INTELSAT 15 (IS-15)     
1 36106U 09067A   23028.49807771 -.00000185  00000+0  00000+0 0  9999
2 36106   0.0113  13.1662 0002345 301.1823  77.5674  1.00272371 48218
DIRECTV 12              
1 36131U 09075A   23028.51265264 -.00000103  00000+0  00000+0 0  9994
2 36131   0.0401 245.0491 0000186 172.4877 151.7851  1.00271099 47993
INTELSAT 16 (IS-16)     
1 36397U 10006A   23027.46206122 -.00000246  00000+0  00000+0 0  9993
2 36397   0.0101   7.3355 0002030 297.8768 271.3781  1.00272336 47315
XM-5                    
1 37185U 10053A   23028.43012788 -.00000023  00000+0  00000+0 0  9995
2 37185   0.0170  77.8868 0000645 151.4893 297.6718  1.00274527 45056
INTELSAT 17 (IS-17)     
1 37238U 10065B   23028.17792681 -.00000002  00000+0  00000+0 0  9992
2 37238   0.0317 219.0245 0002519  95.2733 302.9187  1.00271308 44522
INTELSAT NEW DAWN       
1 37392U 11016A   23027.84238471  .00000154  00000+0  00000+0 0  9992
2 37392   0.0186 117.8267 0000429 213.9362 131.1182  1.00273582 40890
INTELSAT 18 (IS-18)     
1 37834U 11056A   23028.56090824  .00000053  00000+0  00000+0 0  9993
2 37834   0.0203  39.5265 0001988 275.2434 194.6884  1.00270727 41455
INTELSAT 22 (IS-22)     
1 38098U 12011A   23028.08243861 -.00000059  00000+0  00000+0 0  9993
2 38098   0.0097  38.5862 0002460 265.0640 285.1956  1.00271280 39653
INTELSAT 19 (IS-19)     
1 38356U 12030A   23028.42966020 -.00000056  00000+0  00000+0 0  9995
2 38356   0.0171  81.0976 0003283 231.5836 135.4024  1.00272364 39120
INTELSAT 20 (IS-20)     
1 38740U 12043A   23028.28174557 -.00000024  00000+0  00000+0 0  9991
2 38740   0.0224  97.7915 0002319  90.5972 108.7974  1.00271086 38436
INTELSAT 21 (IS-21)     
1 38749U 12045A   23028.54605517 -.00000285  00000+0  00000+0 0  9995
2 38749   0.0167  82.0622 0002195 221.4852 322.5517  1.00272601 38249
INTELSAT 23 (IS-23)     
1 38867U 12057A   23028.47053359 -.00000285  00000+0  00000+0 0  9992
2 38867   0.0039 252.7399 0001472 105.0705 246.0169  1.00265871 37711
FM-6                    
1 39360U 13058A   23028.35720521 -.00000017  00000+0  00000+0 0  9995
2 39360   0.0069  27.1232 0000478 168.2234 304.4340  1.00273505 33951
INTELSAT 30 (IS-30)     
1 40271U 14062A   23027.60174806 -.00000152  00000+0  00000+0 0  9990
2 40271   0.0190  74.5999 0002298  44.9105 128.6350  1.00269777 30189
DIRECTV 14              
1 40333U 14078B   23028.36741865 -.00000126  00000+0  00000+0 0  9996
2 40333   0.0209  76.6455 0000736 149.9733 293.7501  1.00273295 29851
DIRECTV 15              
1 40663U 15026A   23028.36497854 -.00000103  00000+0  00000+0 0  9997
2 40663   0.0184  82.7961 0000626 140.3897 292.6834  1.00277528 28144
SKY MEXICO-1            
1 40664U 15026B   23028.10684711 -.00000235  00000+0  00000+0 0  9996
2 40664   0.0143  65.0165 0002134 243.4910 138.2774  1.00272527 28149
INTELSAT 34 (IS-34)     
1 40874U 15039A   23028.11146685 -.00000286  00000+0  00000+0 0  9993
2 40874   0.0132  54.0090 0000479 174.4209 243.2811  1.00270595 27229
INTELSAT 31 (IS-31)     
1 41581U 16035A   23028.51814355 -.00000151  00000+0  00000+0 0  9997
2 41581   0.0266 213.9077 0002287   3.3018   1.7483  1.00274030 24295
INTELSAT 36 (IS-36)     
1 41747U 16053A   23028.28174557 -.00000024  00000+0  00000+0 0  9997
2 41747   0.0086  40.3015 0000964 311.1170 305.7600  1.00271095 23545
INTELSAT 33E (IS-33E)   
1 41748U 16053B   23028.20616231  .00000049  00000+0  00000+0 0  9996
2 41748   0.0173  33.2479 0001685 267.1305 321.0111  1.00270577 23822
INTELSAT 32E (IS-32E)   
1 41945U 17007B   23028.47245122 -.00000269  00000+0  00000+0 0  9996
2 41945   0.0170  80.8083 0000625 121.9715  51.5643  1.00270426 21851
INTELSAT 35E (IS-35E)   
1 42818U 17041A   23028.47419451 -.00000238  00000+0  00000+0 0  9998
2 42818   0.0157 100.9939 0001878 207.1671 315.4932  1.00272435 20415
INTELSAT 37E (IS-37E)   
1 42950U 17059A   23028.18351324 -.00000141  00000+0  00000+0 0  9999
2 42950   0.0193  88.9495 0002750 215.9238 230.3466  1.00272764 19656
AZERSPACE 2 (IS-38)     
1 43632U 18074A   23028.49005853  .00000137  00000+0  00000+0 0  9996
2 43632   0.0188  84.6132 0001465 220.8726  43.4885  1.00271231 16044
HORIZONS-3E             
1 43633U 18074B   23028.24354993 -.00000032  00000+0  00000+0 0  9997
2 43633   0.0181 117.5794 0001412 175.3158  90.9928  1.00269016 15933
AT&T T-16               
1 44333U 19034A   23028.51433663 -.00000115  00000+0  00000+0 0  9996
2 44333   0.0186  78.7240 0001027 116.2968  16.7705  1.00273098 13230
INTELSAT 39 (IS-39)     
1 44476U 19049B   23027.84822476  .00000032  00000+0  00000+0 0  9996
2 44476   0.0146  77.7627 0001585  85.2504 331.1132  1.00270938 12745
GALAXY 30 (G-30)        
1 46114U 20056C   23028.49766491  .00000037  00000+0  00000+0 0  9998
2 46114   0.0177  85.1736 0002195 232.3458 224.1255  1.00273434  9012
GALAXY 33 (G-33)        
1 54026U 22128A   23027.55253513  .00000077  00000+0  00000+0 0  9997
2 54026   0.0121  28.0610 0001824 284.8909 239.4913  1.00270807  1349
GALAXY 34 (G-34)        
1 54027U 22128B   23028.00560197  .00000058  00000+0  00000+0 0  9997
2 54027   0.0233  76.1605 0002147 347.0743 296.7577  1.00271865  1380
GALAXY 31 (G-31)        
1 54243U 22153A   23027.55984307 -.00000003  00000+0  00000+0 0  9998
2 54243   0.0519 251.5211 0002175  53.2594 260.1819  1.00472286   743
GALAXY 32 (G-32)        
1 54244U 22153B   23028.49683895 -.00000022  00000+0  00000+0 0  9992
2 54244   0.0718 284.2929 0002746  45.3794 211.4701  1.00696416   777
GALAXY 35 (G-35)        
1 54741U 22170A   23028.21131278  .00000132  00000+0  00000+0 0  9997
2 54741   0.0562 277.1016 0002337  83.5246  52.5635  1.00271662   510
GALAXY 36 (G-36)        
1 54742U 22170B   23028.27504226  .00000125  00000+0  00000+0 0  9993
2 54742   0.0301 101.1097 0009023 349.6030 345.8836  1.00433643   524
